LEMUR-2-JK0903EM1407    
1 58336U 23174CJ  26065.50223729  .00026318  00000+0  53129-3 0  9993
2 58336  97.3922 153.5162 0006277 126.4433 233.7396 15.46471889129836
LEMUR-2-MJR092620       
1 58340U 23174CN  26065.19836948  .00015082  00000+0  35498-3 0  9991
2 58340  97.3991 153.5793 0008129 125.6301 234.5704 15.42020698129768
LEMUR-2-NIMBUS2000      
1 58899U 24022A   26065.04490329  .00018028  00000+0  50531-3 0  9994
2 58899  97.4227 273.9251 0010527 125.1586 235.0646 15.36602359116413
LEMUR-2-VALHALLA        
1 58900U 24022B   26065.15375217  .00017436  00000+0  49239-3 0  9992
2 58900  97.4225 274.0700 0011110 120.7229 239.5111 15.36369321116436
LEMUR-2-OBA-NI-JESU     
1 58902U 24022D   26065.40642839  .00105170  00000+0  10775-2 0  9994
2 58902  97.4060 283.2974 0005056  80.9868 279.1963 15.64624153117083
LEMUR-2-CAEL            
1 58903U 24022E   26065.37432122  .00020362  00000+0  55396-3 0  9991
2 58903  97.4212 275.0611 0009462 104.3463 255.8833 15.37516006116529
LEMUR-2-JOHNNYTRUONG    
1 59146U 24043BA  26065.62394204  .00044933  00000+0  72312-3 0  9997
2 59146  97.5259 211.6413 0005376 194.2952 165.8150 15.52835480112084
LEMUR-2-TOMATOKECHUP    
1 60471U 24149D   26065.49534477  .00014240  00000+0  43976-3 0  9992
2 60471  97.3849 147.4384 0001178 194.0497 166.0713 15.33652040 86414
LEMUR-2-STELLA          
1 60533U 24149BT  26065.47823223  .00013882  00000+0  87264-3 0  9998
2 60533  97.6781 147.6601 0001595  95.3729 264.7682 15.09352954 84995
LEMUR-2-MARHISYAM       
1 60536U 24149BW  26065.22580357  .00013695  00000+0  87164-3 0  9993
2 60536  97.6925 147.7434 0003464 114.0507 246.1084 15.08898225 84943
LEMUR-2-AHMED-ASRAR     
1 60576U 24149DN  26065.15500344  .00012794  00000+0  78498-3 0  9996
2 60576  97.7038 149.3863 0002000  35.0187 325.1173 15.10259737 85005
LEMUR-2-LLOYD           
1 60577U 24149DP  26065.47232195  .00012241  00000+0  81891-3 0  9996
2 60577  97.6793 146.6966 0005360 131.3550 228.8139 15.07078003 84914
LEMUR-2-SQUIRRELCOMM    
1 60578U 24149DQ  26065.17225808  .00008403  00000+0  58327-3 0  9990
2 60578  97.6755 146.4932 0006115  51.9851 308.1927 15.05807807 84898
LEMUR-2-SIERRINI        
1 60579U 24149DR  26065.49256020  .00014016  00000+0  89974-3 0  9995
2 60579  97.6887 147.8016 0006321 158.1028 202.0472 15.08566758 84963
LEMUR-2-WILSON          
1 62694U 25009CP  26065.21687817  .00003558  00000+0  33343-3 0  9991
2 62694  97.7074 145.5069 0003700  43.6705 316.4807 14.94651950 61974
LEMUR-2-STAR-FOX        
1 62696U 25009CR  26065.47911526  .00011409  00000+0  90218-3 0  9996
2 62696  97.7050 147.9495 0002378 159.0463 201.0858 15.00801371 62149
