[{"OBJECT_NAME":"LEMUR-2-JK0903EM1407","OBJECT_ID":"2023-174CJ","EPOCH":"2026-03-06T12:03:13.301856","MEAN_MOTION":15.46471889,"ECCENTRICITY":0.00062777,"INCLINATION":97.3922,"RA_OF_ASC_NODE":153.5162,"ARG_OF_PERICENTER":126.4433,"MEAN_ANOMALY":233.7396,"EPHEMERIS_TYPE":0,"CLASSIFICATION_TYPE":"U","NORAD_CAT_ID":58336,"ELEMENT_SET_NO":999,"REV_AT_EPOCH":12983,"BSTAR":0.00053128823,"MEAN_MOTION_DOT":0.00026318,"MEAN_MOTION_DDOT":0},{"OBJECT_NAME":"LEMUR-2-MJR092620","OBJECT_ID":"2023-174CN","EPOCH":"2026-03-06T04:45:39.123072","MEAN_MOTION":15.42020698,"ECCENTRICITY":0.00081291,"INCLINATION":97.3991,"RA_OF_ASC_NODE":153.5793,"ARG_OF_PERICENTER":125.6301,"MEAN_ANOMALY":234.5704,"EPHEMERIS_TYPE":0,"CLASSIFICATION_TYPE":"U","NORAD_CAT_ID":58340,"ELEMENT_SET_NO":999,"REV_AT_EPOCH":12976,"BSTAR":0.00035498021,"MEAN_MOTION_DOT":0.00015082,"MEAN_MOTION_DDOT":0},{"OBJECT_NAME":"LEMUR-2-NIMBUS2000","OBJECT_ID":"2024-022A","EPOCH":"2026-03-06T01:04:39.644256","MEAN_MOTION":15.36602359,"ECCENTRICITY":0.00105276,"INCLINATION":97.4227,"RA_OF_ASC_NODE":273.9251,"ARG_OF_PERICENTER":125.1586,"MEAN_ANOMALY":235.0646,"EPHEMERIS_TYPE":0,"CLASSIFICATION_TYPE":"U","NORAD_CAT_ID":58899,"ELEMENT_SET_NO":999,"REV_AT_EPOCH":11641,"BSTAR":0.00050530736,"MEAN_MOTION_DOT":0.00018028,"MEAN_MOTION_DDOT":0},{"OBJECT_NAME":"LEMUR-2-VALHALLA","OBJECT_ID":"2024-022B","EPOCH":"2026-03-06T03:41:24.187488","MEAN_MOTION":15.36369321,"ECCENTRICITY":0.00111104,"INCLINATION":97.4225,"RA_OF_ASC_NODE":274.07,"ARG_OF_PERICENTER":120.7229,"MEAN_ANOMALY":239.5111,"EPHEMERIS_TYPE":0,"CLASSIFICATION_TYPE":"U","NORAD_CAT_ID":58900,"ELEMENT_SET_NO":999,"REV_AT_EPOCH":11643,"BSTAR":0.00049238862,"MEAN_MOTION_DOT":0.00017436,"MEAN_MOTION_DDOT":0},{"OBJECT_NAME":"LEMUR-2-OBA-NI-JESU","OBJECT_ID":"2024-022D","EPOCH":"2026-03-06T09:45:15.412896","MEAN_MOTION":15.64624153,"ECCENTRICITY":0.00050568,"INCLINATION":97.406,"RA_OF_ASC_NODE":283.2974,"ARG_OF_PERICENTER":80.9868,"MEAN_ANOMALY":279.1963,"EPHEMERIS_TYPE":0,"CLASSIFICATION_TYPE":"U","NORAD_CAT_ID":58902,"ELEMENT_SET_NO":999,"REV_AT_EPOCH":11708,"BSTAR":0.0010774557,"MEAN_MOTION_DOT":0.0010517,"MEAN_MOTION_DDOT":0},{"OBJECT_NAME":"LEMUR-2-CAEL","OBJECT_ID":"2024-022E","EPOCH":"2026-03-06T08:59:01.353408","MEAN_MOTION":15.37516006,"ECCENTRICITY":0.00094625,"INCLINATION":97.4212,"RA_OF_ASC_NODE":275.0611,"ARG_OF_PERICENTER":104.3463,"MEAN_ANOMALY":255.8833,"EPHEMERIS_TYPE":0,"CLASSIFICATION_TYPE":"U","NORAD_CAT_ID":58903,"ELEMENT_SET_NO":999,"REV_AT_EPOCH":11652,"BSTAR":0.00055395787,"MEAN_MOTION_DOT":0.00020362,"MEAN_MOTION_DDOT":0},{"OBJECT_NAME":"LEMUR-2-JOHNNYTRUONG","OBJECT_ID":"2024-043BA","EPOCH":"2026-03-06T14:58:28.592256","MEAN_MOTION":15.5283548,"ECCENTRICITY":0.0005376,"INCLINATION":97.5259,"RA_OF_ASC_NODE":211.6413,"ARG_OF_PERICENTER":194.2952,"MEAN_ANOMALY":165.815,"EPHEMERIS_TYPE":0,"CLASSIFICATION_TYPE":"U","NORAD_CAT_ID":59146,"ELEMENT_SET_NO":999,"REV_AT_EPOCH":11208,"BSTAR":0.00072311724,"MEAN_MOTION_DOT":0.00044933,"MEAN_MOTION_DDOT":0},{"OBJECT_NAME":"LEMUR-2-TOMATOKECHUP","OBJECT_ID":"2024-149D","EPOCH":"2026-03-06T11:53:17.788128","MEAN_MOTION":15.3365204,"ECCENTRICITY":0.0001178,"INCLINATION":97.3849,"RA_OF_ASC_NODE":147.4384,"ARG_OF_PERICENTER":194.0497,"MEAN_ANOMALY":166.0713,"EPHEMERIS_TYPE":0,"CLASSIFICATION_TYPE":"U","NORAD_CAT_ID":60471,"ELEMENT_SET_NO":999,"REV_AT_EPOCH":8641,"BSTAR":0.00043975863,"MEAN_MOTION_DOT":0.0001424,"MEAN_MOTION_DDOT":0},{"OBJECT_NAME":"LEMUR-2-STELLA","OBJECT_ID":"2024-149BT","EPOCH":"2026-03-06T11:28:39.264672","MEAN_MOTION":15.09352954,"ECCENTRICITY":0.00015958,"INCLINATION":97.6781,"RA_OF_ASC_NODE":147.6601,"ARG_OF_PERICENTER":95.3729,"MEAN_ANOMALY":264.7682,"EPHEMERIS_TYPE":0,"CLASSIFICATION_TYPE":"U","NORAD_CAT_ID":60533,"ELEMENT_SET_NO":999,"REV_AT_EPOCH":8499,"BSTAR":0.00087264102,"MEAN_MOTION_DOT":0.00013882,"MEAN_MOTION_DDOT":0},{"OBJECT_NAME":"LEMUR-2-MARHISYAM","OBJECT_ID":"2024-149BW","EPOCH":"2026-03-06T05:25:09.428448","MEAN_MOTION":15.08898225,"ECCENTRICITY":0.0003464,"INCLINATION":97.6925,"RA_OF_ASC_NODE":147.7434,"ARG_OF_PERICENTER":114.0507,"MEAN_ANOMALY":246.1084,"EPHEMERIS_TYPE":0,"CLASSIFICATION_TYPE":"U","NORAD_CAT_ID":60536,"ELEMENT_SET_NO":999,"REV_AT_EPOCH":8494,"BSTAR":0.00087164481,"MEAN_MOTION_DOT":0.00013695,"MEAN_MOTION_DDOT":0},{"OBJECT_NAME":"LEMUR-2-AHMED-ASRAR","OBJECT_ID":"2024-149DN","EPOCH":"2026-03-06T03:43:12.297216","MEAN_MOTION":15.10259737,"ECCENTRICITY":0.00020007,"INCLINATION":97.7038,"RA_OF_ASC_NODE":149.3863,"ARG_OF_PERICENTER":35.0187,"MEAN_ANOMALY":325.1173,"EPHEMERIS_TYPE":0,"CLASSIFICATION_TYPE":"U","NORAD_CAT_ID":60576,"ELEMENT_SET_NO":999,"REV_AT_EPOCH":8500,"BSTAR":0.00078498187,"MEAN_MOTION_DOT":0.00012794,"MEAN_MOTION_DDOT":0},{"OBJECT_NAME":"LEMUR-2-LLOYD","OBJECT_ID":"2024-149DP","EPOCH":"2026-03-06T11:20:08.616480","MEAN_MOTION":15.07078003,"ECCENTRICITY":0.000536,"INCLINATION":97.6793,"RA_OF_ASC_NODE":146.6966,"ARG_OF_PERICENTER":131.355,"MEAN_ANOMALY":228.8139,"EPHEMERIS_TYPE":0,"CLASSIFICATION_TYPE":"U","NORAD_CAT_ID":60577,"ELEMENT_SET_NO":999,"REV_AT_EPOCH":8491,"BSTAR":0.00081891294,"MEAN_MOTION_DOT":0.00012241,"MEAN_MOTION_DDOT":0},{"OBJECT_NAME":"LEMUR-2-SQUIRRELCOMM","OBJECT_ID":"2024-149DQ","EPOCH":"2026-03-06T04:08:03.098112","MEAN_MOTION":15.05807807,"ECCENTRICITY":0.00061155,"INCLINATION":97.6755,"RA_OF_ASC_NODE":146.4932,"ARG_OF_PERICENTER":51.9851,"MEAN_ANOMALY":308.1927,"EPHEMERIS_TYPE":0,"CLASSIFICATION_TYPE":"U","NORAD_CAT_ID":60578,"ELEMENT_SET_NO":999,"REV_AT_EPOCH":8489,"BSTAR":0.0005832713,"MEAN_MOTION_DOT":8.403e-5,"MEAN_MOTION_DDOT":0},{"OBJECT_NAME":"LEMUR-2-SIERRINI","OBJECT_ID":"2024-149DR","EPOCH":"2026-03-06T11:49:17.201280","MEAN_MOTION":15.08566758,"ECCENTRICITY":0.00063217,"INCLINATION":97.6887,"RA_OF_ASC_NODE":147.8016,"ARG_OF_PERICENTER":158.1028,"MEAN_ANOMALY":202.0472,"EPHEMERIS_TYPE":0,"CLASSIFICATION_TYPE":"U","NORAD_CAT_ID":60579,"ELEMENT_SET_NO":999,"REV_AT_EPOCH":8496,"BSTAR":0.00089974325,"MEAN_MOTION_DOT":0.00014016,"MEAN_MOTION_DDOT":0},{"OBJECT_NAME":"LEMUR-2-WILSON","OBJECT_ID":"2025-009CP","EPOCH":"2026-03-06T05:12:18.273888","MEAN_MOTION":14.9465195,"ECCENTRICITY":0.00037007,"INCLINATION":97.7074,"RA_OF_ASC_NODE":145.5069,"ARG_OF_PERICENTER":43.6705,"MEAN_ANOMALY":316.4807,"EPHEMERIS_TYPE":0,"CLASSIFICATION_TYPE":"U","NORAD_CAT_ID":62694,"ELEMENT_SET_NO":999,"REV_AT_EPOCH":6197,"BSTAR":0.00033342621,"MEAN_MOTION_DOT":3.558e-5,"MEAN_MOTION_DDOT":0},{"OBJECT_NAME":"LEMUR-2-STAR-FOX","OBJECT_ID":"2025-009CR","EPOCH":"2026-03-06T11:29:55.558464","MEAN_MOTION":15.00801371,"ECCENTRICITY":0.00023782,"INCLINATION":97.705,"RA_OF_ASC_NODE":147.9495,"ARG_OF_PERICENTER":159.0463,"MEAN_ANOMALY":201.0858,"EPHEMERIS_TYPE":0,"CLASSIFICATION_TYPE":"U","NORAD_CAT_ID":62696,"ELEMENT_SET_NO":999,"REV_AT_EPOCH":6214,"BSTAR":0.00090218469,"MEAN_MOTION_DOT":0.00011409,"MEAN_MOTION_DDOT":0}]
